*******************************************************************************
Ephemeris / WWW_USER Mon Jul 15 19:04:17 2024 Pasadena, USA      / Horizons    
*******************************************************************************
Target body name: (2018 RD5)                      {source: JPL#11}
Center body name: Earth (399)                     {source: DE441}
Center-site name: Gemini South Obs., Cerro Pachon
*******************************************************************************
Start time      : A.D. 2019-Jan-20 23:56:00.0000 UT      
Stop  time      : A.D. 2019-Jan-21 09:52:00.0000 UT      
Step-size       : 1 minutes
*******************************************************************************
Target pole/equ : undefined
Target radii    : undefined                                                    
Center geodetic : 289.2634, -30.2406227, 2.71233  {E-lon(deg),Lat(deg),Alt(km)}
Center cylindric: 289.2634,5517.21435,-3194.81213 {E-lon(deg),Dxy(km),Dz(km)}
Center pole/equ : ITRF93                          {East-longitude positive}
Center radii    : 6378.137, 6378.137, 6356.752 km {Equator_a, b, pole_c}       
Target primary  : Sun
Vis. interferer : MOON (R_eq= 1737.400) km        {source: DE441}
Rel. light bend : Sun                             {source: DE441}
Rel. lght bnd GM: 1.3271E+11 km^3/s^2                                          
Small-body perts: Yes                             {source: SB441-N16}
Atmos refraction: NO (AIRLESS)
RA format       : HMS
Time format     : CAL 
Calendar mode   : Mixed Julian/Gregorian
RTS-only print  : NO       
EOP file        : eop.240715.p241008                                           
EOP coverage    : DATA-BASED 1962-JAN-20 TO 2024-JUL-15. PREDICTS-> 2024-OCT-07
Units conversion: 1 au= 149597870.700 km, c= 299792.458 km/s, 1 day= 86400.0 s 
Table cut-offs 1: Elevation (-90.0deg=NO ),Airmass (>38.000=NO), Daylight (YES)
Table cut-offs 2: Solar elongation (  0.0,180.0=NO ),Local Hour Angle( 0.0=NO )
Table cut-offs 3: RA/DEC angular rate (     0.0=NO )                           
*******************************************************************************
Initial IAU76/J2000 heliocentric ecliptic osculating elements (au, days, deg.):
  EPOCH=  2458378.5 ! 2018-Sep-17.00 (TDB)         Residual RMS= .55339        
   EC= .2891632988519429   QR= 1.009650912138325   TP= 2458360.6433297051      
   OM= 171.0145363394364   W=  163.7983400129293   IN= 8.474307805886117       
  Equivalent ICRF heliocentric cartesian coordinates (au, au/d):
   X= 1.017757009008053E+00  Y=-8.967367621791844E-02  Z=-4.840656937149759E-02
  VX= 3.309922676318766E-03 VY= 1.832358809606965E-02 VZ= 4.854018792897502E-03
Asteroid physical parameters (km, seconds, rotational period in hours):        
   GM= n.a.                RAD= n.a.               ROTPER= n.a.                
   H= 25.9                 G= .150                 B-V= n.a.                   
                           ALBEDO= n.a.            STYP= n.a.                  
*******************************************************************************
 Date__(UT)__HR:MN     R.A._________(ICRF)_________DEC
******************************************************
$$SOE
 2019-Jan-21 08:08  m  03 39 21.696810 +03 42 10.16506
 2019-Jan-21 08:09  m  03 39 21.758306 +03 42 10.87766
 2019-Jan-21 08:10  m  03 39 21.819813 +03 42 11.59026
 2019-Jan-21 08:11  m  03 39 21.881331 +03 42 12.30286
 2019-Jan-21 08:12  m  03 39 21.942860 +03 42 13.01547
 2019-Jan-21 08:13  m  03 39 22.004400 +03 42 13.72807
 2019-Jan-21 08:14  m  03 39 22.065952 +03 42 14.44068
 2019-Jan-21 08:15  m  03 39 22.127514 +03 42 15.15328
 2019-Jan-21 08:16  m  03 39 22.189087 +03 42 15.86589
 2019-Jan-21 08:17  m  03 39 22.250671 +03 42 16.57850
 2019-Jan-21 08:18  m  03 39 22.312266 +03 42 17.29110
 2019-Jan-21 08:19  m  03 39 22.373872 +03 42 18.00371
 2019-Jan-21 08:20  m  03 39 22.435488 +03 42 18.71632
 2019-Jan-21 08:21  m  03 39 22.497116 +03 42 19.42893
 2019-Jan-21 08:22  m  03 39 22.558754 +03 42 20.14154
 2019-Jan-21 08:23  m  03 39 22.620403 +03 42 20.85415
 2019-Jan-21 08:24  m  03 39 22.682063 +03 42 21.56677
 2019-Jan-21 08:25  m  03 39 22.743733 +03 42 22.27938
 2019-Jan-21 08:26  m  03 39 22.805414 +03 42 22.99200
 2019-Jan-21 08:27  m  03 39 22.867106 +03 42 23.70461
 2019-Jan-21 08:28  m  03 39 22.928808 +03 42 24.41723
 2019-Jan-21 08:29 Am  03 39 22.990521 +03 42 25.12985
 2019-Jan-21 08:30 Am  03 39 23.052244 +03 42 25.84247
 2019-Jan-21 08:31 Am  03 39 23.113978 +03 42 26.55509
 2019-Jan-21 08:32 Am  03 39 23.175723 +03 42 27.26771
 2019-Jan-21 08:33 Am  03 39 23.237478 +03 42 27.98033
 2019-Jan-21 08:34 Am  03 39 23.299243 +03 42 28.69296
 2019-Jan-21 08:35 Am  03 39 23.361019 +03 42 29.40559
 2019-Jan-21 08:36 Am  03 39 23.422805 +03 42 30.11822
 2019-Jan-21 08:37 Am  03 39 23.484602 +03 42 30.83084
 2019-Jan-21 08:38 Am  03 39 23.546409 +03 42 31.54348
 2019-Jan-21 08:39 Am  03 39 23.608226 +03 42 32.25611
 2019-Jan-21 08:40 Am  03 39 23.670054 +03 42 32.96874
 2019-Jan-21 08:41 Am  03 39 23.731892 +03 42 33.68138
 2019-Jan-21 08:42 Am  03 39 23.793740 +03 42 34.39402
 2019-Jan-21 08:43 Am  03 39 23.855598 +03 42 35.10666
 2019-Jan-21 08:44 Am  03 39 23.917466 +03 42 35.81930
 2019-Jan-21 08:45 Am  03 39 23.979345 +03 42 36.53195
 2019-Jan-21 08:46 Am  03 39 24.041233 +03 42 37.24459
 2019-Jan-21 08:47 Am  03 39 24.103132 +03 42 37.95724
 2019-Jan-21 08:48 Am  03 39 24.165041 +03 42 38.66989
 2019-Jan-21 08:49 Am  03 39 24.226959 +03 42 39.38254
 2019-Jan-21 08:50 Am  03 39 24.288888 +03 42 40.09520
 2019-Jan-21 08:51 Am  03 39 24.350827 +03 42 40.80785
 2019-Jan-21 08:52 Am  03 39 24.412775 +03 42 41.52051
 2019-Jan-21 08:53 Am  03 39 24.474733 +03 42 42.23317
 2019-Jan-21 08:54 Am  03 39 24.536702 +03 42 42.94583
 2019-Jan-21 08:55 Am  03 39 24.598680 +03 42 43.65850
 2019-Jan-21 08:56 Am  03 39 24.660667 +03 42 44.37117
 2019-Jan-21 08:57 Am  03 39 24.722665 +03 42 45.08384
 2019-Jan-21 08:58 Am  03 39 24.784672 +03 42 45.79651
 2019-Jan-21 08:59 Am  03 39 24.846689 +03 42 46.50918
 2019-Jan-21 09:00 Am  03 39 24.908716 +03 42 47.22186
 2019-Jan-21 09:01 Am  03 39 24.970752 +03 42 47.93454
 2019-Jan-21 09:02 Am  03 39 25.032798 +03 42 48.64722
 2019-Jan-21 09:03 Nm  03 39 25.094853 +03 42 49.35991
 2019-Jan-21 09:04 Nm  03 39 25.156918 +03 42 50.07260
 2019-Jan-21 09:05 Nm  03 39 25.218992 +03 42 50.78529
 2019-Jan-21 09:06 Nm  03 39 25.281076 +03 42 51.49798
 2019-Jan-21 09:07 Nm  03 39 25.343169 +03 42 52.21068
 2019-Jan-21 09:08 Nm  03 39 25.405272 +03 42 52.92338
 2019-Jan-21 09:09 Nm  03 39 25.467384 +03 42 53.63608
 2019-Jan-21 09:10 Nm  03 39 25.529505 +03 42 54.34878
 2019-Jan-21 09:11 Nm  03 39 25.591635 +03 42 55.06149
 2019-Jan-21 09:12 Nm  03 39 25.653775 +03 42 55.77420
 2019-Jan-21 09:13 Nm  03 39 25.715924 +03 42 56.48692
 2019-Jan-21 09:14 Nm  03 39 25.778082 +03 42 57.19963
 2019-Jan-21 09:15 Nm  03 39 25.840249 +03 42 57.91235
 2019-Jan-21 09:16 Nm  03 39 25.902425 +03 42 58.62508
 2019-Jan-21 09:17 Nm  03 39 25.964611 +03 42 59.33780
 2019-Jan-21 09:18 Nm  03 39 26.026805 +03 43 00.05053
 2019-Jan-21 09:19 Nm  03 39 26.089008 +03 43 00.76327
 2019-Jan-21 09:20 Nm  03 39 26.151221 +03 43 01.47600
 2019-Jan-21 09:21 Nm  03 39 26.213442 +03 43 02.18874
 2019-Jan-21 09:22 Nm  03 39 26.275672 +03 43 02.90148
 2019-Jan-21 09:23 Nm  03 39 26.337911 +03 43 03.61423
 2019-Jan-21 09:24 Nm  03 39 26.400159 +03 43 04.32698
 2019-Jan-21 09:25 Nm  03 39 26.462415 +03 43 05.03973
 2019-Jan-21 09:26 Nm  03 39 26.524680 +03 43 05.75249
 2019-Jan-21 09:27 Nm  03 39 26.586954 +03 43 06.46525
 2019-Jan-21 09:28 Nm  03 39 26.649237 +03 43 07.17801
 2019-Jan-21 09:29 Nm  03 39 26.711528 +03 43 07.89078
 2019-Jan-21 09:30 Nm  03 39 26.773827 +03 43 08.60355
 2019-Jan-21 09:31 Nm  03 39 26.836136 +03 43 09.31633
 2019-Jan-21 09:32 Nm  03 39 26.898452 +03 43 10.02911
 2019-Jan-21 09:33 Nm  03 39 26.960778 +03 43 10.74189
 2019-Jan-21 09:34 Nm  03 39 27.023111 +03 43 11.45467
 2019-Jan-21 09:35 Cm  03 39 27.085453 +03 43 12.16746
 2019-Jan-21 09:36 Cm  03 39 27.147804 +03 43 12.88026
 2019-Jan-21 09:37 Cm  03 39 27.210162 +03 43 13.59306
 2019-Jan-21 09:38 Cm  03 39 27.272529 +03 43 14.30586
 2019-Jan-21 09:39 Cm  03 39 27.334904 +03 43 15.01866
 2019-Jan-21 09:40 Cm  03 39 27.397287 +03 43 15.73147
 2019-Jan-21 09:41 Cm  03 39 27.459679 +03 43 16.44428
 2019-Jan-21 09:42 Cm  03 39 27.522078 +03 43 17.15710
 2019-Jan-21 09:43 Cm  03 39 27.584486 +03 43 17.86992
 2019-Jan-21 09:44 Cm  03 39 27.646902 +03 43 18.58275
 2019-Jan-21 09:45 Cm  03 39 27.709325 +03 43 19.29558
 2019-Jan-21 09:46 Cm  03 39 27.771757 +03 43 20.00841
 2019-Jan-21 09:47 Cm  03 39 27.834196 +03 43 20.72125
 2019-Jan-21 09:48 Cm  03 39 27.896644 +03 43 21.43410
 2019-Jan-21 09:49 Cm  03 39 27.959099 +03 43 22.14694
 2019-Jan-21 09:50 Cm  03 39 28.021562 +03 43 22.85979
 2019-Jan-21 09:51 Cm  03 39 28.084032 +03 43 23.57265
 2019-Jan-21 09:52 Cm  03 39 28.146511 +03 43 24.28551
